OBJECT_NAME,OBJECT_ID,EPOCH,MEAN_MOTION,ECCENTRICITY,INCLINATION,RA_OF_ASC_NODE,ARG_OF_PERICENTER,MEAN_ANOMALY,EPHEMERIS_TYPE,CLASSIFICATION_TYPE,NORAD_CAT_ID,ELEMENT_SET_NO,REV_AT_EPOCH,BSTAR,MEAN_MOTION_DOT,MEAN_MOTION_DDOT
CUTE-1 (CO-55),2003-031E,2026-07-08T11:06:19.636128,14.24348709,.00106666,98.6739,197.7541,120.0495,240.1743,0,U,27844,999,19470,.11365069E-3,.219E-5,0
CUBESAT XI-IV (CO-57),2003-031J,2026-07-08T11:05:05.892000,14.23632050,.00102587,98.6772,197.4488,137.0463,223.1519,0,U,27848,999,19440,.99678022E-4,.184E-5,0
CUBESAT XI-V,2005-043F,2026-07-08T09:32:36.268800,14.72690312,.00150041,98.3007,345.4679,135.1728,225.0694,0,U,28895,999,10487,.17854786E-3,.1087E-4,0
CUTE-1.7+APD II (CO-65),2008-021C,2026-07-08T12:38:23.074944,15.09660225,.00075047,97.8287,171.3930,326.7676,33.3080,0,U,32785,999,98841,.18802779E-3,.296E-4,0
CANX-2,2008-021H,2026-07-08T08:30:53.629632,15.05775425,.00095036,97.8650,169.5464,341.9141,18.1746,0,U,32790,999,98799,.19504276E-3,.2762E-4,0
SEEDS II (CO-66),2008-021J,2026-07-08T11:28:54.444288,15.33506492,.00022906,97.7528,188.4040,172.4327,187.6949,0,U,32791,999,99055,.41830987E-3,.13473E-3,0
SWISSCUBE,2009-051B,2026-07-08T04:08:27.012768,14.62521876,.00074785,98.4017,97.4251,138.1087,222.0687,0,U,35932,999,89222,.15442235E-3,.734E-5,0
BEESAT-1,2009-051C,2026-07-08T12:50:40.138656,14.61755033,.00057267,98.3944,97.3846,147.6322,212.5231,0,U,35933,999,89230,.1313649E-3,.606E-5,0
ITUPSAT1,2009-051E,2026-07-08T13:04:29.830080,14.60472478,.00076108,98.4027,96.5634,162.4704,197.6760,0,U,35935,999,89185,.12544193E-3,.56E-5,0
TISAT 1,2010-035E,2026-07-08T08:14:11.727456,15.32545934,.00040359,98.0705,137.7820,133.6071,226.5504,0,U,36799,999,87094,.42780877E-3,.13368E-3,0
STRAND-1,2013-009E,2026-07-08T05:18:09.889056,14.37175978,.00090081,98.3931,8.9384,160.5108,199.6425,0,U,39090,999,70008,.85060761E-4,.21E-5,0
BRITE-AUSTRIA,2013-009F,2026-07-08T10:50:43.779840,14.36550587,.00103477,98.4005,8.3622,170.0006,190.1389,0,U,39091,999,70010,.56086152E-4,.122E-5,0
NEE-01 PEGASO,2013-018B,2026-07-07T21:33:10.748448,14.93770042,.00139573,98.1251,333.7367,95.9045,264.3765,0,U,39151,999,71379,.17439547E-3,.1789E-4,0
POPACS 2,2013-055E,2026-07-08T05:49:32.875104,14.91823858,.04155143,80.9910,120.0851,126.1925,237.8477,0,U,39269,999,66635,.20236197E-3,.12393E-3,-.883277E-6
POPACS 3,2013-055F,2026-07-08T11:39:55.878624,14.56541276,.05496215,80.9993,206.0862,5.1431,355.5089,0,U,39270,999,64165,.21220132E-3,.8965E-4,0
ZACUBE-1 (TSHEPISOSAT),2013-066B,2026-07-07T22:28:29.343072,15.01306371,.00435451,97.8020,151.3770,178.4838,181.6526,0,U,39417,999,68384,.11193336E-3,.1404E-4,0
WNISAT-1,2013-066H,2026-07-07T22:27:52.543584,14.58108160,.01633917,97.7227,336.6221,166.0778,194.5009,0,U,39423,999,66975,.18457217E-3,.973E-5,0
TRITON-1,2013-066M,2026-07-08T13:37:22.007712,14.81779032,.00900598,97.8222,98.8863,163.6141,196.8017,0,U,39427,999,67725,.1389745E-3,.1119E-4,0
GOMX-1,2013-066Q,2026-07-08T11:57:51.079968,14.69531389,.01288731,97.6476,28.6162,9.7097,350.6555,0,U,39430,999,67304,.16191526E-3,.1039E-4,0
CUBEBUG-2 (LO-74),2013-066AA,2026-07-08T07:06:58.023360,14.93939383,.0056194,97.8910,138.3670,318.9114,40.7880,0,U,39440,999,68014,.16589136E-3,.1757E-4,0
NEE-02 KRYSAOR,2013-066AB,2026-07-08T06:37:08.809824,14.86719769,.00660405,97.8887,128.3413,2.0720,358.0757,0,U,39441,999,67933,.15492257E-3,.1374E-4,0
FUNCUBE-1 (AO-73),2013-066AE,2026-07-08T08:00:29.691072,15.09759525,.00377065,97.8284,161.2250,130.0497,230.4049,0,U,39444,999,68285,.2942867E-3,.476E-4,0
UWE-3,2013-066AG,2026-07-08T08:04:01.539552,14.97171964,.00475215,97.8696,145.5560,248.4998,111.1154,0,U,39446,999,68074,.1520418E-3,.1733E-4,0
BRITE-CA1 (TORONTO),2014-033L,2026-07-07T19:53:18.253536,14.72712458,.00779124,97.9764,317.3791,209.9563,149.7175,0,U,40020,999,64525,.12319721E-3,.77E-5,0
DUCHIFAT-1,2014-033M,2026-07-08T09:58:27.712128,15.69597973,.00015769,98.0445,251.6379,267.1459,92.9620,0,U,40021,999,65907,.89956653E-3,.107238E-2,0
NANOSATC-BR1,2014-033Q,2026-07-07T21:55:11.532288,15.32158355,.00052825,98.0718,223.1467,113.6999,246.4796,0,U,40024,999,65715,.34455904E-3,.10617E-3,0
QB50P1,2014-033R,2026-07-08T12:02:04.909344,15.18598212,.00099345,98.0973,202.1461,144.4347,215.7549,0,U,40025,999,65626,.27786497E-3,.5677E-4,0
QB50P2,2014-033Y,2026-07-08T10:18:23.039712,15.15446588,.00093357,98.0761,187.6362,102.7470,257.4805,0,U,40032,999,65588,.22015712E-3,.4091E-4,0
PERSEUS-M2,2014-033AD,2026-07-08T12:57:49.665888,14.95573093,.00106584,97.9965,140.5164,223.6618,136.3760,0,U,40037,999,65397,.12564282E-3,.1334E-4,0
